BEIDOU 3 (C01)          
1 36287U 10001A   20330.51938972 -.00000272  00000-0  00000+0 0  9991
2 36287   1.5969  36.5690 0004413 125.4706 230.3101  1.00271936 39814
BEIDOU 5 (C06)          
1 36828U 10036A   20330.28989434 -.00000034  00000-0  00000-0 0  9990
2 36828  54.1631 181.4873 0100181 233.7987 233.2395  1.00266095 37861
BEIDOU 6 (C04)          
1 37210U 10057A   20330.52687984 -.00000104  00000-0  00000+0 0  9998
2 37210   0.7982  44.0871 0006894 181.0266 189.4983  1.00270743 36933
BEIDOU 7 (C07)          
1 37256U 10068A   20330.55018389 -.00000228  00000-0  00000+0 0  9997
2 37256  51.2149 296.4235 0081125 215.8220 229.1721  1.00260474 36440
BEIDOU 8 (C08)          
1 37384U 11013A   20330.22669162 -.00000218  00000-0  00000+0 0  9994
2 37384  59.4955  59.9687 0052912 203.8517 359.8214  1.00260722 35317
BEIDOU 9 (C09)          
1 37763U 11038A   20330.57827199 -.00000002  00000-0  00000-0 0  9998
2 37763  54.4461 183.8935 0072494 223.4638 320.4072  1.00260841 34291
BEIDOU 10 (C10)         
1 37948U 11073A   20329.37757688 -.00000158  00000-0  00000+0 0  9994
2 37948  51.3136 296.0406 0070624 217.2612 140.6541  1.00259850 33039
BEIDOU 11 (C05)         
1 38091U 12008A   20330.59462231  .00000066  00000-0  00000-0 0  9994
2 38091   1.8193  70.4208 0003027 221.8094  45.5503  1.00269415 32122
BEIDOU 12 (C11)         
1 38250U 12018A   20330.48484578 -.00000097  00000-0  00000-0 0  9993
2 38250  56.7509  12.3517 0024581 243.3975  98.6817  1.86234242 58480
BEIDOU 13 (C12)         
1 38251U 12018B   20330.41125325 -.00000097  00000-0  00000-0 0  9999
2 38251  56.6747  11.7149 0015529 245.1540  92.2365  1.86232518 58480
BEIDOU 15 (C14)         
1 38775U 12050B   20330.24814458  .00000077  00000-0  00000-0 0  9996
2 38775  55.1164 130.8709 0012387 325.6058  99.5750  1.86232283 55866
BEIDOU 16 (C02)         
1 38953U 12059A   20330.07745181 -.00000167  00000-0  00000+0 0  9990
2 38953   1.4831  84.6577 0007867 252.2878 199.3476  1.00270024 29697
BEIDOU 17 (C31)         
1 40549U 15019A   20330.43843464 -.00000151  00000-0  00000-0 0  9990
2 40549  52.8188 319.3467 0039831 194.7354 161.3755  1.00252305 20723
BEIDOU 18 (C57)         
1 40748U 15037A   20330.19129654 -.00000099  00000-0  00000-0 0  9993
2 40748  55.9411  10.9333 0002490 311.5848 148.2701  1.86233091 36313
BEIDOU 19 (C58)         
1 40749U 15037B   20330.61821044 -.00000097  00000-0  00000-0 0  9991
2 40749  55.9462  10.9042 0005589 284.0699 239.0132  1.86232086 36317
BEIDOU 20 (C18)         
1 40938U 15053A   20330.26183557 -.00000164  00000-0  00000+0 0  9994
2 40938  52.3800 282.3938 0047392 192.7481 139.8981  1.00282293 19002
BEIDOU IGSO-6 (C13)     
1 41434U 16021A   20330.53171494 -.00000174  00000-0  00000-0 0  9991
2 41434  57.2688  58.8043 0042902 206.4876  85.9891  1.00268007 17127
BEIDOU-2 G7 (C03)       
1 41586U 16037A   20330.57271760 -.00000346  00000-0  00000-0 0  9998
2 41586   1.8254  68.2998 0007938 358.5804 314.8666  1.00271783 16435
BEIDOU-3 M1 (C19)       
1 43001U 17069A   20330.49406432  .00000077  00000-0  00000-0 0  9995
2 43001  55.2743 130.7856 0007015 289.3140  97.3000  1.86231723 20808
BEIDOU-3 M2 (C20)       
1 43002U 17069B   20330.42322800  .00000077  00000-0  00000-0 0  9995
2 43002  55.2775 130.8244 0006173 321.2225  61.5862  1.86231421 20792
BEIDOU-3 M3 (C27)       
1 43107U 18003A   20330.60229051 -.00000099  00000-0  00000-0 0  9999
2 43107  55.3796  12.0901 0003078  37.9654 270.7665  1.86232479 19552
BEIDOU-3 M4 (C28)       
1 43108U 18003B   20330.53141602 -.00000099  00000-0  00000-0 0  9997
2 43108  55.3731  12.0854 0004687 238.4809  67.9113  1.86232648 19558
BEIDOU-3 M5 (C21)       
1 43207U 18018A   20329.98494507  .00000078  00000-0  00000-0 0  9991
2 43207  55.2350 130.9367 0004508 356.2064   3.7970  1.86231798 18932
BEIDOU-3 M6 (C22)       
1 43208U 18018B   20330.05171915  .00000078  00000-0  00000+0 0  9996
2 43208  55.2345 130.9394 0005362 304.6288  55.3274  1.86231831 18939
BEIDOU-3 M7 (C29)       
1 43245U 18029A   20330.43432788 -.00000098  00000-0  00000-0 0  9993
2 43245  55.3196   9.8988 0001434 243.0260 223.1867  1.86232627 18094
BEIDOU-3 M8 (C30)       
1 43246U 18029B   20330.28674027 -.00000099  00000-0  10000-3 0  9996
2 43246  55.3164   9.9347 0003823 323.9854  89.2982  1.86232923 18088
BEIDOU IGSO-7 (C16)     
1 43539U 18057A   20330.01167582 -.00000061  00000-0  00000+0 0  9990
2 43539  55.0465 180.8003 0030820 213.0456 149.9535  1.00276265  8806
BEIDOU-3 M9 (C23)       
1 43581U 18062A   20330.27372727 -.00000055  00000-0  00000-0 0  9994
2 43581  54.4899 251.6084 0005095 284.2328 329.9638  1.86231805 15826
BEIDOU-3 M10 (C24)      
1 43582U 18062B   20330.47873582 -.00000053  00000-0  00000-0 0  9990
2 43582  54.4905 251.5916 0005978 340.8186 141.9467  1.86232295 15836
BEIDOU-3 M11 (C25)      
1 43602U 18067A   20330.39877922 -.00000052  00000-0  00000-0 0  9990
2 43602  54.5642 250.1613 0007218 349.8934 121.8906  1.86231480 15320
BEIDOU-3 M12 (C26)      
1 43603U 18067B   20330.61906440 -.00000050  00000-0  00000-0 0  9992
2 43603  54.5607 250.1210 0004675 337.6304 192.3496  1.86231436 15345
BEIDOU-3 M13 (C32)      
1 43622U 18072A   20330.37157728  .00000076  00000-0  00000-0 0  9996
2 43622  55.1969 130.4997 0003787 285.2580 109.2254  1.86231674 14851
BEIDOU-3 M14 (C33)      
1 43623U 18072B   20330.05652520  .00000077  00000-0  00000-0 0  9993
2 43623  55.2001 130.5031 0002866 335.7827 297.7074  1.86231741 14849
BEIDOU-3 M15 (C34)      
1 43647U 18078A   20330.37517659 -.00000099  00000-0  10000-3 0  9992
2 43647  55.2123  10.1086 0005893 336.9031  45.3560  1.86232766 14368
BEIDOU-3 M16 (C35)      
1 43648U 18078B   20330.51761198 -.00000098  00000-0  10000-3 0  9997
2 43648  55.2072  10.1092 0003730 340.1154  46.4467  1.86232188 14388
BEIDOU-3 G1 (C59)       
1 43683U 18085A   20330.64137130 -.00000268  00000-0  00000-0 0  9996
2 43683   1.4273 246.5204 0004402 358.2695 191.2018  1.00274833  7719
BEIDOU-3 M17 (C36)      
1 43706U 18093A   20330.46980295 -.00000053  00000-0  00000-0 0  9991
2 43706  54.5716 251.4475 0010637 273.6949 336.9227  1.86231801 13720
BEIDOU-3 M18 (C37)      
1 43707U 18093B   20330.34192388 -.00000054  00000-0  00000-0 0  9998
2 43707  54.5709 251.4402 0009661 295.2621 320.2877  1.86232101 13726
BEIDOU-3 IGSO-1 (C38)   
1 44204U 19023A   20330.40404203 -.00000230  00000-0  00000+0 0  9999
2 44204  55.7257  59.1480 0018292 196.0857  65.6751  1.00300827  6009
BEIDOU-2 G8             
1 44231U 19027A   20330.52180845 -.00000241  00000-0  00000-0 0  9992
2 44231   0.6274 304.8679 0008133 274.7223 177.6432  1.00267557  5732
BEIDOU-3 IGSO-2 (C39)   
1 44337U 19035A   20330.52618963 -.00000034  00000-0  00000-0 0  9995
2 44337  55.0663 176.8377 0016786 183.7872 359.3631  1.00291719  5343
BEIDOU-3 M23 (C45)      
1 44542U 19061A   20330.40022954 -.00000053  00000-0  10000-3 0  9993
2 44542  54.7960 251.4788 0009402 325.8953 282.4178  1.86231586  7983
BEIDOU-3 M24 (C46)      
1 44543U 19061B   20330.33200241 -.00000054  00000-0  10000-3 0  9994
2 44543  54.7939 251.4519 0006773 317.4264 155.7315  1.86231921  7991
BEIDOU-3 IGSO-3         
1 44709U 19073A   20330.36899472 -.00000177  00000-0  00000-0 0  9996
2 44709  58.1579 302.2525 0021521 197.9924 165.0329  1.00284144  4107
BEIDOU-3 M21            
1 44793U 19078A   20328.40314788 -.00000107  00000-0  10000-3 0  9995
2 44793  55.0605  10.2654 0005443 343.7982 111.0074  1.86232424  6811
BEIDOU-3 M22            
1 44794U 19078B   20330.63401392 -.00000098  00000-0  10000-3 0  9991
2 44794  55.0368  10.1941 0003721 332.4564  88.6284  1.86232853  6856
BEIDOU-3 M19            
1 44864U 19090A   20330.29630712  .00000077  00000-0  00000+0 0  9996
2 44864  55.1343 130.7444 0013386 260.2390 129.0869  1.86231773  6431
BEIDOU-3 M20            
1 44865U 19090B   20330.63369633  .00000076  00000-0  00000-0 0  9996
2 44865  55.1345 130.7624 0012083 278.9559  66.5112  1.86231819  6415
BEIDOU-3 G2             
1 45344U 20017A   20330.50735115 -.00000137  00000-0  00000-0 0  9997
2 45344   2.7156 331.4754 0001359 256.1978  99.9412  1.00272573  2908
BEIDOU-3 G3             
1 45807U 20040A   20330.47063229 -.00000348  00000-0  00000+0 0  9996
2 45807   2.7544 298.5692 0008640   3.1015  43.2156  1.00271248  1734
